[{"OBJECT_NAME":"IRIDIUM 124","OBJECT_ID":"2017-039H","EPOCH":"2026-03-09T23:29:37.068864","MEAN_MOTION":14.432748,"ECCENTRICITY":0.0002084,"INCLINATION":86.4531,"RA_OF_ASC_NODE":331.8553,"ARG_OF_PERICENTER":84.6213,"MEAN_ANOMALY":275.5226,"EPHEMERIS_TYPE":0,"CLASSIFICATION_TYPE":"U","NORAD_CAT_ID":42810,"ELEMENT_SET_NO":999,"REV_AT_EPOCH":46080,"BSTAR":0.00013794234,"MEAN_MOTION_DOT":4.84e-6,"MEAN_MOTION_DDOT":0},{"OBJECT_NAME":"CZ-6A DEB","OBJECT_ID":"2022-151AGR","EPOCH":"2026-03-09T17:13:35.845536","MEAN_MOTION":14.59101371,"ECCENTRICITY":0.01244954,"INCLINATION":98.702,"RA_OF_ASC_NODE":149.9911,"ARG_OF_PERICENTER":202.7785,"MEAN_ANOMALY":156.7862,"EPHEMERIS_TYPE":0,"CLASSIFICATION_TYPE":"U","NORAD_CAT_ID":56665,"ELEMENT_SET_NO":999,"REV_AT_EPOCH":15779,"BSTAR":0.00095603604,"MEAN_MOTION_DOT":4.956e-5,"MEAN_MOTION_DDOT":0}]
